[{"OBJECT_NAME":"TEVEL2-4","OBJECT_ID":"2025-052D","EPOCH":"2026-03-09T16:39:37.129536","MEAN_MOTION":15.30925813,"ECCENTRICITY":0.0004733,"INCLINATION":97.4009,"RA_OF_ASC_NODE":325.1237,"ARG_OF_PERICENTER":95.3468,"MEAN_ANOMALY":264.8313,"EPHEMERIS_TYPE":0,"CLASSIFICATION_TYPE":"U","NORAD_CAT_ID":63213,"ELEMENT_SET_NO":999,"REV_AT_EPOCH":5487,"BSTAR":0.00070362503,"MEAN_MOTION_DOT":0.0002099,"MEAN_MOTION_DDOT":0},{"OBJECT_NAME":"STARLINK-35708","OBJECT_ID":"2025-247N","EPOCH":"2026-03-09T14:45:08.158464","MEAN_MOTION":15.30194602,"ECCENTRICITY":8.26e-5,"INCLINATION":53.1579,"RA_OF_ASC_NODE":191.6852,"ARG_OF_PERICENTER":112.4942,"MEAN_ANOMALY":247.6146,"EPHEMERIS_TYPE":0,"CLASSIFICATION_TYPE":"U","NORAD_CAT_ID":66277,"ELEMENT_SET_NO":999,"REV_AT_EPOCH":2107,"BSTAR":0.00054182,"MEAN_MOTION_DOT":0.00015719,"MEAN_MOTION_DDOT":0}]
